[{"OBJECT_NAME":"CANX-2","OBJECT_ID":"2008-021H","EPOCH":"2026-03-09T21:45:30.862944","MEAN_MOTION":15.04798248,"ECCENTRICITY":0.00113052,"INCLINATION":97.8556,"RA_OF_ASC_NODE":46.8625,"ARG_OF_PERICENTER":28.5783,"MEAN_ANOMALY":331.606,"EPHEMERIS_TYPE":0,"CLASSIFICATION_TYPE":"U","NORAD_CAT_ID":32790,"ELEMENT_SET_NO":999,"REV_AT_EPOCH":96987,"BSTAR":0.0003958982,"MEAN_MOTION_DOT":5.531e-5,"MEAN_MOTION_DDOT":0},{"OBJECT_NAME":"STARLINK-6140","OBJECT_ID":"2023-090L","EPOCH":"2026-03-09T22:54:44.119584","MEAN_MOTION":15.02533618,"ECCENTRICITY":0.00012835,"INCLINATION":43.0036,"RA_OF_ASC_NODE":273.1778,"ARG_OF_PERICENTER":261.6443,"MEAN_ANOMALY":98.4254,"EPHEMERIS_TYPE":0,"CLASSIFICATION_TYPE":"U","NORAD_CAT_ID":57111,"ELEMENT_SET_NO":999,"REV_AT_EPOCH":15045,"BSTAR":4.2759088e-5,"MEAN_MOTION_DOT":3.74e-6,"MEAN_MOTION_DDOT":0}]
